COSMOS 2527 (756)       
1 43508U 18053A   25014.08219684 -.00000016  00000+0  00000+0 0  9993
2 43508  65.2984  91.2603 0009323 232.7596 127.2084  2.13102231 51216
COSMOS 2529 (757)       
1 43687U 18086A   25014.18067646  .00000069  00000+0  00000+0 0  9994
2 43687  64.2946 210.1300 0006617 259.0515 100.9111  2.13102008 48221
COSMOS 2534 (758)       
1 44299U 19030A   25014.26911462  .00000068  00000+0  00000+0 0  9996
2 44299  64.3678 210.1002 0008871 288.9421 273.1074  2.13102170 43860
COSMOS 2544 (759)       
1 44850U 19088A   25013.55717656 -.00000020  00000+0  00000+0 0  9991
2 44850  65.2851  91.1110 0014489 253.9190 105.9722  2.13101957 39645
COSMOS 2545 (760)       
1 45358U 20018A   25013.75380532 -.00000082  00000+0  00000+0 0  9999
2 45358  64.6505 330.6187 0010780 255.3908 104.4805  2.13102477 37592
COSMOS 2547 (705K)      
1 46805U 20075A   25013.94006422  .00000072  00000+0  00000+0 0  9992
2 46805  64.5972 209.8155 0005689 230.4964 129.4914  2.13102917 32847
COSMOS 2557 (706K)      
1 52984U 22075A   25014.10643219 -.00000083  00000+0  00000+0 0  9992
2 52984  64.5829 332.7169 0013638 282.1227  77.7148  2.13101795 19654
COSMOS 2559 (707K)      
1 54031U 22130A   25013.11145766 -.00000084  00000+0  00000+0 0  9994
2 54031  64.5554 332.8620 0007138 237.0505 122.8700  2.13101183 17603
