<?xml version="1.0" encoding="UTF-8"?>
<ndm xmlns:xsi="http://www.w3.org/2001/XMLSchema-instance" xsi:noNamespaceSchemaLocation="https://sanaregistry.org/r/ndmxml_unqualified/ndmxml-2.0.0-master-2.0.xsd">
<omm id="CCSDS_OMM_VERS" version="2.0">
<header><CREATION_DATE/><ORIGINATOR/></header><body><segment><metadata><OBJECT_NAME>COSMOS 2527 (756)</OBJECT_NAME><OBJECT_ID>2018-053A</OBJECT_ID><CENTER_NAME>EARTH</CENTER_NAME><REF_FRAME>TEME</REF_FRAME><TIME_SYSTEM>UTC</TIME_SYSTEM><MEAN_ELEMENT_THEORY>SGP4</MEAN_ELEMENT_THEORY></metadata><data><meanElements><EPOCH>2025-01-14T01:58:21.806976</EPOCH><MEAN_MOTION>2.13102231</MEAN_MOTION><ECCENTRICITY>.0009323</ECCENTRICITY><INCLINATION>65.2984</INCLINATION><RA_OF_ASC_NODE>91.2603</RA_OF_ASC_NODE><ARG_OF_PERICENTER>232.7596</ARG_OF_PERICENTER><MEAN_ANOMALY>127.2084</MEAN_ANOMALY></meanElements><tleParameters><EPHEMERIS_TYPE>0</EPHEMERIS_TYPE><CLASSIFICATION_TYPE>U</CLASSIFICATION_TYPE><NORAD_CAT_ID>43508</NORAD_CAT_ID><ELEMENT_SET_NO>999</ELEMENT_SET_NO><REV_AT_EPOCH>5121</REV_AT_EPOCH><BSTAR>0</BSTAR><MEAN_MOTION_DOT>-.16E-6</MEAN_MOTION_DOT><MEAN_MOTION_DDOT>0</MEAN_MOTION_DDOT></tleParameters></data></segment></body></omm>
<omm id="CCSDS_OMM_VERS" version="2.0">
<header><CREATION_DATE/><ORIGINATOR/></header><body><segment><metadata><OBJECT_NAME>COSMOS 2529 (757)</OBJECT_NAME><OBJECT_ID>2018-086A</OBJECT_ID><CENTER_NAME>EARTH</CENTER_NAME><REF_FRAME>TEME</REF_FRAME><TIME_SYSTEM>UTC</TIME_SYSTEM><MEAN_ELEMENT_THEORY>SGP4</MEAN_ELEMENT_THEORY></metadata><data><meanElements><EPOCH>2025-01-14T04:20:10.446144</EPOCH><MEAN_MOTION>2.13102008</MEAN_MOTION><ECCENTRICITY>.0006617</ECCENTRICITY><INCLINATION>64.2946</INCLINATION><RA_OF_ASC_NODE>210.1300</RA_OF_ASC_NODE><ARG_OF_PERICENTER>259.0515</ARG_OF_PERICENTER><MEAN_ANOMALY>100.9111</MEAN_ANOMALY></meanElements><tleParameters><EPHEMERIS_TYPE>0</EPHEMERIS_TYPE><CLASSIFICATION_TYPE>U</CLASSIFICATION_TYPE><NORAD_CAT_ID>43687</NORAD_CAT_ID><ELEMENT_SET_NO>999</ELEMENT_SET_NO><REV_AT_EPOCH>4822</REV_AT_EPOCH><BSTAR>0</BSTAR><MEAN_MOTION_DOT>.69E-6</MEAN_MOTION_DOT><MEAN_MOTION_DDOT>0</MEAN_MOTION_DDOT></tleParameters></data></segment></body></omm>
<omm id="CCSDS_OMM_VERS" version="2.0">
<header><CREATION_DATE/><ORIGINATOR/></header><body><segment><metadata><OBJECT_NAME>COSMOS 2534 (758)</OBJECT_NAME><OBJECT_ID>2019-030A</OBJECT_ID><CENTER_NAME>EARTH</CENTER_NAME><REF_FRAME>TEME</REF_FRAME><TIME_SYSTEM>UTC</TIME_SYSTEM><MEAN_ELEMENT_THEORY>SGP4</MEAN_ELEMENT_THEORY></metadata><data><meanElements><EPOCH>2025-01-14T06:27:31.503168</EPOCH><MEAN_MOTION>2.13102170</MEAN_MOTION><ECCENTRICITY>.0008871</ECCENTRICITY><INCLINATION>64.3678</INCLINATION><RA_OF_ASC_NODE>210.1002</RA_OF_ASC_NODE><ARG_OF_PERICENTER>288.9421</ARG_OF_PERICENTER><MEAN_ANOMALY>273.1074</MEAN_ANOMALY></meanElements><tleParameters><EPHEMERIS_TYPE>0</EPHEMERIS_TYPE><CLASSIFICATION_TYPE>U</CLASSIFICATION_TYPE><NORAD_CAT_ID>44299</NORAD_CAT_ID><ELEMENT_SET_NO>999</ELEMENT_SET_NO><REV_AT_EPOCH>4386</REV_AT_EPOCH><BSTAR>0</BSTAR><MEAN_MOTION_DOT>.68E-6</MEAN_MOTION_DOT><MEAN_MOTION_DDOT>0</MEAN_MOTION_DDOT></tleParameters></data></segment></body></omm>
<omm id="CCSDS_OMM_VERS" version="2.0">
<header><CREATION_DATE/><ORIGINATOR/></header><body><segment><metadata><OBJECT_NAME>COSMOS 2544 (759)</OBJECT_NAME><OBJECT_ID>2019-088A</OBJECT_ID><CENTER_NAME>EARTH</CENTER_NAME><REF_FRAME>TEME</REF_FRAME><TIME_SYSTEM>UTC</TIME_SYSTEM><MEAN_ELEMENT_THEORY>SGP4</MEAN_ELEMENT_THEORY></metadata><data><meanElements><EPOCH>2025-01-13T13:22:20.054784</EPOCH><MEAN_MOTION>2.13101957</MEAN_MOTION><ECCENTRICITY>.0014489</ECCENTRICITY><INCLINATION>65.2851</INCLINATION><RA_OF_ASC_NODE>91.1110</RA_OF_ASC_NODE><ARG_OF_PERICENTER>253.9190</ARG_OF_PERICENTER><MEAN_ANOMALY>105.9722</MEAN_ANOMALY></meanElements><tleParameters><EPHEMERIS_TYPE>0</EPHEMERIS_TYPE><CLASSIFICATION_TYPE>U</CLASSIFICATION_TYPE><NORAD_CAT_ID>44850</NORAD_CAT_ID><ELEMENT_SET_NO>999</ELEMENT_SET_NO><REV_AT_EPOCH>3964</REV_AT_EPOCH><BSTAR>0</BSTAR><MEAN_MOTION_DOT>-.2E-6</MEAN_MOTION_DOT><MEAN_MOTION_DDOT>0</MEAN_MOTION_DDOT></tleParameters></data></segment></body></omm>
<omm id="CCSDS_OMM_VERS" version="2.0">
<header><CREATION_DATE/><ORIGINATOR/></header><body><segment><metadata><OBJECT_NAME>COSMOS 2545 (760)</OBJECT_NAME><OBJECT_ID>2020-018A</OBJECT_ID><CENTER_NAME>EARTH</CENTER_NAME><REF_FRAME>TEME</REF_FRAME><TIME_SYSTEM>UTC</TIME_SYSTEM><MEAN_ELEMENT_THEORY>SGP4</MEAN_ELEMENT_THEORY></metadata><data><meanElements><EPOCH>2025-01-13T18:05:28.779648</EPOCH><MEAN_MOTION>2.13102477</MEAN_MOTION><ECCENTRICITY>.001078</ECCENTRICITY><INCLINATION>64.6505</INCLINATION><RA_OF_ASC_NODE>330.6187</RA_OF_ASC_NODE><ARG_OF_PERICENTER>255.3908</ARG_OF_PERICENTER><MEAN_ANOMALY>104.4805</MEAN_ANOMALY></meanElements><tleParameters><EPHEMERIS_TYPE>0</EPHEMERIS_TYPE><CLASSIFICATION_TYPE>U</CLASSIFICATION_TYPE><NORAD_CAT_ID>45358</NORAD_CAT_ID><ELEMENT_SET_NO>999</ELEMENT_SET_NO><REV_AT_EPOCH>3759</REV_AT_EPOCH><BSTAR>0</BSTAR><MEAN_MOTION_DOT>-.82E-6</MEAN_MOTION_DOT><MEAN_MOTION_DDOT>0</MEAN_MOTION_DDOT></tleParameters></data></segment></body></omm>
<omm id="CCSDS_OMM_VERS" version="2.0">
<header><CREATION_DATE/><ORIGINATOR/></header><body><segment><metadata><OBJECT_NAME>COSMOS 2547 (705K)</OBJECT_NAME><OBJECT_ID>2020-075A</OBJECT_ID><CENTER_NAME>EARTH</CENTER_NAME><REF_FRAME>TEME</REF_FRAME><TIME_SYSTEM>UTC</TIME_SYSTEM><MEAN_ELEMENT_THEORY>SGP4</MEAN_ELEMENT_THEORY></metadata><data><meanElements><EPOCH>2025-01-13T22:33:41.548608</EPOCH><MEAN_MOTION>2.13102917</MEAN_MOTION><ECCENTRICITY>.0005689</ECCENTRICITY><INCLINATION>64.5972</INCLINATION><RA_OF_ASC_NODE>209.8155</RA_OF_ASC_NODE><ARG_OF_PERICENTER>230.4964</ARG_OF_PERICENTER><MEAN_ANOMALY>129.4914</MEAN_ANOMALY></meanElements><tleParameters><EPHEMERIS_TYPE>0</EPHEMERIS_TYPE><CLASSIFICATION_TYPE>U</CLASSIFICATION_TYPE><NORAD_CAT_ID>46805</NORAD_CAT_ID><ELEMENT_SET_NO>999</ELEMENT_SET_NO><REV_AT_EPOCH>3284</REV_AT_EPOCH><BSTAR>0</BSTAR><MEAN_MOTION_DOT>.72E-6</MEAN_MOTION_DOT><MEAN_MOTION_DDOT>0</MEAN_MOTION_DDOT></tleParameters></data></segment></body></omm>
<omm id="CCSDS_OMM_VERS" version="2.0">
<header><CREATION_DATE/><ORIGINATOR/></header><body><segment><metadata><OBJECT_NAME>COSMOS 2557 (706K)</OBJECT_NAME><OBJECT_ID>2022-075A</OBJECT_ID><CENTER_NAME>EARTH</CENTER_NAME><REF_FRAME>TEME</REF_FRAME><TIME_SYSTEM>UTC</TIME_SYSTEM><MEAN_ELEMENT_THEORY>SGP4</MEAN_ELEMENT_THEORY></metadata><data><meanElements><EPOCH>2025-01-14T02:33:15.741216</EPOCH><MEAN_MOTION>2.13101795</MEAN_MOTION><ECCENTRICITY>.0013638</ECCENTRICITY><INCLINATION>64.5829</INCLINATION><RA_OF_ASC_NODE>332.7169</RA_OF_ASC_NODE><ARG_OF_PERICENTER>282.1227</ARG_OF_PERICENTER><MEAN_ANOMALY>77.7148</MEAN_ANOMALY></meanElements><tleParameters><EPHEMERIS_TYPE>0</EPHEMERIS_TYPE><CLASSIFICATION_TYPE>U</CLASSIFICATION_TYPE><NORAD_CAT_ID>52984</NORAD_CAT_ID><ELEMENT_SET_NO>999</ELEMENT_SET_NO><REV_AT_EPOCH>1965</REV_AT_EPOCH><BSTAR>0</BSTAR><MEAN_MOTION_DOT>-.83E-6</MEAN_MOTION_DOT><MEAN_MOTION_DDOT>0</MEAN_MOTION_DDOT></tleParameters></data></segment></body></omm>
<omm id="CCSDS_OMM_VERS" version="2.0">
<header><CREATION_DATE/><ORIGINATOR/></header><body><segment><metadata><OBJECT_NAME>COSMOS 2559 (707K)</OBJECT_NAME><OBJECT_ID>2022-130A</OBJECT_ID><CENTER_NAME>EARTH</CENTER_NAME><REF_FRAME>TEME</REF_FRAME><TIME_SYSTEM>UTC</TIME_SYSTEM><MEAN_ELEMENT_THEORY>SGP4</MEAN_ELEMENT_THEORY></metadata><data><meanElements><EPOCH>2025-01-13T02:40:29.941824</EPOCH><MEAN_MOTION>2.13101183</MEAN_MOTION><ECCENTRICITY>.0007138</ECCENTRICITY><INCLINATION>64.5554</INCLINATION><RA_OF_ASC_NODE>332.8620</RA_OF_ASC_NODE><ARG_OF_PERICENTER>237.0505</ARG_OF_PERICENTER><MEAN_ANOMALY>122.8700</MEAN_ANOMALY></meanElements><tleParameters><EPHEMERIS_TYPE>0</EPHEMERIS_TYPE><CLASSIFICATION_TYPE>U</CLASSIFICATION_TYPE><NORAD_CAT_ID>54031</NORAD_CAT_ID><ELEMENT_SET_NO>999</ELEMENT_SET_NO><REV_AT_EPOCH>1760</REV_AT_EPOCH><BSTAR>0</BSTAR><MEAN_MOTION_DOT>-.84E-6</MEAN_MOTION_DOT><MEAN_MOTION_DDOT>0</MEAN_MOTION_DDOT></tleParameters></data></segment></body></omm>

</ndm>